APRIZESAT 2             
1 28366U 04025A   26063.42643011  .00000511  00000+0  17184-3 0  9994
2 28366  98.0902 235.3906 0105151 205.7610 153.8320 14.37983898136582
SAUDICOMSAT 1           
1 28369U 04025D   26063.51870725  .00000726  00000+0  17752-3 0  9990
2 28369  98.5809  70.8137 0031880 346.3218  13.7111 14.55381828148903
SAUDICOMSAT 2           
1 28370U 04025E   26063.50880015  .00000458  00000+0  12884-3 0  9997
2 28370  98.6685  72.7795 0054937 215.7275 144.0237 14.49904473144935
APRIZESAT 1             
1 28372U 04025G   26063.60134738  .00000427  00000+0  11691-3 0  9995
2 28372  98.6344  71.4634 0045776 112.6778 247.9265 14.51710330146735
NANOSAT-1               
1 28493U 04049B   26063.78488880  .00002021  00000+0  27502-3 0  9994
2 28493  98.2090 198.0131 0002823 266.7537  93.3351 14.79902666140009
SAUDICOMSAT 7           
1 31119U 07012C   26062.80104221  .00000975  00000+0  18362-3 0  9992
2 31119  98.3669  34.8511 0056083 165.4573 194.8259 14.65959779  6997
SAUDICOMSAT 6           
1 31121U 07012E   26063.41233602  .00001252  00000+0  24904-3 0  9997
2 31121  98.3981  29.0618 0070770 293.5396  65.8381 14.62420861  4876
SAUDICOMSAT 5           
1 31124U 07012H   26063.46618165  .00001344  00000+0  23957-3 0  9995
2 31124  98.3383  36.2960 0048849  94.9255 265.7529 14.67990535  8238
SAUDICOMSAT 3           
1 31125U 07012J   26063.40274410  .00001862  00000+0  31204-3 0  9990
2 31125  98.3041  36.7917 0039923  25.1326 335.1811 14.70508837  9427
SAUDICOMSAT 4           
1 31127U 07012L   26063.47960240  .00001030  00000+0  19937-3 0  9998
2 31127  98.3874  33.9935 0062571 224.7661 134.8482 14.64369735  5964
APRIZESAT 4             
1 35684U 09041D   26063.19222317  .00001280  00000+0  15966-3 0  9994
2 35684  98.1497 136.4014 0042274 303.0599  56.6557 14.83696823895795
APRIZESAT 3             
1 35686U 09041F   26063.62754945  .00003266  00000+0  28644-3 0  9994
2 35686  98.1890 211.9601 0063217  53.2921 307.4084 14.95876880900748
S-NET D                 
1 43186U 18014G   26063.26059905  .00009708  00000+0  51471-3 0  9993
2 43186  97.5446 328.7457 0009427  32.5537 327.6275 15.15543403442869
S-NET B                 
1 43187U 18014H   26063.27005787  .00010011  00000+0  53100-3 0  9994
2 43187  97.5454 328.7383 0009893  27.5757 332.5999 15.15515870442867
S-NET A                 
1 43188U 18014J   26063.25996993  .00009592  00000+0  50848-3 0  9999
2 43188  97.5464 328.9181 0009847  28.6783 331.4989 15.15549843442861
S-NET C                 
1 43189U 18014K   26063.66953447  .00009109  00000+0  48343-3 0  9993
2 43189  97.5477 329.3835 0010966  18.9968 341.1672 15.15513987441471
SALSAT                  
1 46495U 20068K   26063.50003082  .00014646  00000+0  53709-3 0  9996
2 46495  97.8848  60.3287 0008688 318.7431  41.3149 15.28060764299367
